OBJECT_NAME,OBJECT_ID,EPOCH,MEAN_MOTION,ECCENTRICITY,INCLINATION,RA_OF_ASC_NODE,ARG_OF_PERICENTER,MEAN_ANOMALY,EPHEMERIS_TYPE,CLASSIFICATION_TYPE,NORAD_CAT_ID,ELEMENT_SET_NO,REV_AT_EPOCH,BSTAR,MEAN_MOTION_DOT,MEAN_MOTION_DDOT
JILIN-1 07,2018-008E,2026-07-12T07:44:00.966624,15.35133649,.00070441,97.1767,212.5858,340.2334,19.8636,0,U,43159,999,46885,.15814984E-3,.5318E-4,0
JILIN-1 08,2018-008F,2026-07-12T05:01:54.359616,15.33988521,.00056687,97.1802,211.7646,4.0528,356.0760,0,U,43160,999,46878,.11139691E-3,.3588E-4,0
S-NET D,2018-014G,2026-07-12T03:14:12.781824,15.16900810,.00063964,97.5341,97.7709,298.1632,61.8955,0,U,43186,999,46254,.14699889E-3,.2829E-4,0
S-NET B,2018-014H,2026-07-12T03:31:24.664800,15.16870908,.00069685,97.5346,97.7699,292.1595,67.8899,0,U,43187,999,46254,.15871302E-3,.3058E-4,0
S-NET A,2018-014J,2026-07-12T04:47:23.279136,15.16909664,.00068891,97.5356,98.0361,292.7039,67.3465,0,U,43188,999,46255,.14535174E-3,.2797E-4,0
S-NET C,2018-014K,2026-07-12T03:37:10.993152,15.16861734,.00081445,97.5373,98.0660,283.2635,76.7689,0,U,43189,999,46109,.15032622E-3,.2892E-4,0
PAZ,2018-020A,2026-07-12T06:26:55.484736,15.19151463,.00017132,97.4453,200.2980,89.4934,270.6497,0,U,43215,999,46481,.53623103E-4,.1059E-4,0
GOES 17,2018-022A,2026-07-12T02:49:09.867648,1.00272084,.000052,0.9984,85.2989,88.6386,68.8748,0,U,43226,999,3067,0,-.181E-5,0
LKW-4,2018-025A,2026-07-11T12:45:23.378112,15.64297454,.00031965,97.6348,5.3515,195.8707,164.2451,0,U,43236,999,46383,.32626297E-3,.31064E-3,0
ZHUHAI-1 OVS-02,2018-040B,2026-07-12T07:03:03.289248,15.25352879,.00047893,97.0382,209.0381,142.8912,217.2659,0,U,43440,999,45654,.16691211E-3,.4143E-4,0
ZHUHAI-1 OHS-02,2018-040C,2026-07-12T07:55:23.666592,15.26241077,.00110114,97.0362,216.0368,133.9458,226.2692,0,U,43441,999,11811,.18782341E-3,.4805E-4,0
GAOFEN-6,2018-048A,2026-07-12T08:23:56.409216,14.76383245,.00121716,98.0965,256.0451,89.8654,270.3950,0,U,43484,999,43710,.12661912E-3,.828E-5,0
LUOJIA-1 01,2018-048B,2026-07-12T08:02:58.942752,14.87374736,.00099946,97.8103,271.1198,46.0629,314.1410,0,U,43485,999,43795,.62030354E-4,.507E-5,0
PAKTES 1A,2018-056A,2026-07-12T07:13:47.560224,14.99197074,.00200675,98.1283,350.8595,28.6533,331.5787,0,U,43529,999,43568,.88328254E-4,.1014E-4,0
PRSS-1,2018-056B,2026-07-12T07:21:05.419008,14.82026599,.00013385,97.7815,260.4797,84.3020,275.8346,0,U,43530,999,43215,.46055512E-4,.315E-5,0
HAIYANG-1C,2018-068A,2026-07-12T06:59:08.347776,14.34185870,.00113671,98.5186,265.2350,26.6176,333.5590,0,U,43609,999,41068,-.7777436E-5,-.65E-6,0
SSTL S1-4,2018-071A,2026-07-12T07:14:01.836096,14.96199552,.00020058,97.4999,63.8668,95.9655,264.1796,0,U,43618,999,42669,.21208704E-4,.185E-5,0
HAIYANG-2B,2018-081A,2026-07-12T06:16:24.630816,13.79307063,.00007677,99.3291,201.6390,149.8172,210.3024,0,U,43655,999,38838,.30395666E-3,.268E-5,0
CFOSAT,2018-083A,2026-07-12T07:12:23.811840,15.16524966,.00019276,97.3615,197.0932,75.7256,284.4191,0,U,43662,999,42624,.10181581E-3,.192E-4,0
TEN-KOH,2018-084G,2026-07-11T11:46:04.412640,15.03032610,.00100019,98.0751,25.8755,41.0624,319.1351,0,U,43677,999,41981,.15600013E-3,.2036E-4,0
DIWATA-2B,2018-084H,2026-07-12T07:26:46.104576,15.00556212,.00129794,98.1221,30.6185,93.2241,267.0467,0,U,43678,999,41998,.10092143E-3,.1209E-4,0
STARS-AO,2018-084J,2026-07-11T13:00:37.091808,15.17320262,.00036189,98.0483,48.0164,87.6972,272.4674,0,U,43679,999,42116,.19491974E-3,.3811E-4,0
AUTCUBE 2,2018-084K,2026-07-11T13:08:14.285184,15.10249760,.00080642,98.0696,40.0145,328.7440,31.3307,0,U,43681,999,42060,.11245607E-3,.1769E-4,0
METOP-C,2018-087A,2026-07-12T04:42:39.528576,14.21518503,.00022171,98.6631,252.3412,97.6893,262.4537,0,U,43689,999,39838,.36586599E-4,.37E-6,0
ES'HAIL 2,2018-090A,2026-07-12T05:04:47.607168,1.00269523,.00021713,0.0282,45.8671,114.4474,231.7884,0,U,43700,999,2792,0,0,0
MOHAMMED VI-B,2018-095A,2026-07-12T07:25:13.310976,14.77080545,.00017528,97.9553,265.2869,95.8873,264.2537,0,U,43717,999,41189,.92646116E-4,.603E-5,0
HYSIS,2018-096A,2026-07-12T07:36:51.607872,14.78665637,.00018573,97.9834,259.8668,84.9993,275.1430,0,U,43719,999,41113,.19828202E-4,.94E-6,0
COSMOS 2530 (RODNIK-S 16),2018-097A,2026-07-12T06:00:34.679232,12.42881597,.00191078,82.5125,206.7255,345.5380,14.5151,0,U,43751,999,34540,-.46459509E-4,.3E-7,0
COSMOS 2531 (RODNIK-S 17),2018-097B,2026-07-12T06:31:45.774048,12.42912871,.0016729,82.5171,207.7791,5.4204,354.7054,0,U,43752,999,34542,-.67940061E-4,0,0
