JILIN-1 07              
1 43159U 18008E   26193.32223341  .00005318  00000+0  15815-3 0  9999
2 43159  97.1767 212.5858 0007044 340.2334  19.8636 15.35133649468850
JILIN-1 08              
1 43160U 18008F   26193.20965694  .00003588  00000+0  11140-3 0  9996
2 43160  97.1802 211.7646 0005668   4.0528 356.0760 15.33988521468789
S-NET D                 
1 43186U 18014G   26193.13487016  .00002829  00000+0  14700-3 0  9992
2 43186  97.5341  97.7709 0006396 298.1632  61.8955 15.16900810462543
S-NET B                 
1 43187U 18014H   26193.14681325  .00003058  00000+0  15871-3 0  9998
2 43187  97.5346  97.7699 0006968 292.1595  67.8899 15.16870908462541
S-NET A                 
1 43188U 18014J   26193.19957499  .00002797  00000+0  14535-3 0  9997
2 43188  97.5356  98.0361 0006889 292.7039  67.3465 15.16909664462551
S-NET C                 
1 43189U 18014K   26193.15082168  .00002892  00000+0  15033-3 0  9996
2 43189  97.5373  98.0660 0008144 283.2635  76.7689 15.16861734461091
PAZ                     
1 43215U 18020A   26193.26869774  .00001059  00000+0  53623-4 0  9993
2 43215  97.4453 200.2980 0001713  89.4934 270.6497 15.19151463464813
GOES 17                 
1 43226U 18022A   26193.11747532 -.00000181  00000+0  00000+0 0  9990
2 43226   0.9984  85.2989 0000520  88.6386  68.8748  1.00272084 30677
LKW-4                   
1 43236U 18025A   26192.53152058  .00031064  00000+0  32626-3 0  9998
2 43236  97.6348   5.3515 0003196 195.8707 164.2451 15.64297454463836
ZHUHAI-1 OVS-02         
1 43440U 18040B   26193.29378807  .00004143  00000+0  16691-3 0  9990
2 43440  97.0382 209.0381 0004789 142.8912 217.2659 15.25352879456547
ZHUHAI-1 OHS-02         
1 43441U 18040C   26193.33013503  .00004805  00000+0  18782-3 0  9993
2 43441  97.0362 216.0368 0011011 133.9458 226.2692 15.26241077118114
GAOFEN-6                
1 43484U 18048A   26193.34995844  .00000828  00000+0  12662-3 0  9998
2 43484  98.0965 256.0451 0012171  89.8654 270.3950 14.76383245437101
LUOJIA-1 01             
1 43485U 18048B   26193.33540443  .00000507  00000+0  62030-4 0  9998
2 43485  97.8103 271.1198 0009994  46.0629 314.1410 14.87374736437953
PAKTES 1A               
1 43529U 18056A   26193.30124491  .00001014  00000+0  88328-4 0  9996
2 43529  98.1283 350.8595 0020067  28.6533 331.5787 14.99197074435684
PRSS-1                  
1 43530U 18056B   26193.30631272  .00000315  00000+0  46056-4 0  9993
2 43530  97.7815 260.4797 0001338  84.3020 275.8346 14.82026599432157
HAIYANG-1C              
1 43609U 18068A   26193.29106884 -.00000065  00000+0 -77774-5 0  9993
2 43609  98.5186 265.2350 0011367  26.6176 333.5590 14.34185870410688
SSTL S1-4               
1 43618U 18071A   26193.30141014  .00000185  00000+0  21209-4 0  9995
2 43618  97.4999  63.8668 0002005  95.9655 264.1796 14.96199552426697
HAIYANG-2B              
1 43655U 18081A   26193.26139619  .00000268  00000+0  30396-3 0  9998
2 43655  99.3291 201.6390 0000767 149.8172 210.3024 13.79307063388382
CFOSAT                  
1 43662U 18083A   26193.30027560  .00001920  00000+0  10182-3 0  9991
2 43662  97.3615 197.0932 0001927  75.7256 284.4191 15.16524966426248
TEN-KOH                 
1 43677U 18084G   26192.49032885  .00002036  00000+0  15600-3 0  9992
2 43677  98.0751  25.8755 0010001  41.0624 319.1351 15.03032610419817
DIWATA-2B               
1 43678U 18084H   26193.31025584  .00001209  00000+0  10092-3 0  9994
2 43678  98.1221  30.6185 0012979  93.2241 267.0467 15.00556212419985
STARS-AO                
1 43679U 18084J   26192.54209597  .00003811  00000+0  19492-3 0  9991
2 43679  98.0483  48.0164 0003618  87.6972 272.4674 15.17320262421168
AUTCUBE 2               
1 43681U 18084K   26192.54738756  .00001769  00000+0  11246-3 0  9997
2 43681  98.0696  40.0145 0008064 328.7440  31.3307 15.10249760420606
METOP-C                 
1 43689U 18087A   26193.19629084  .00000037  00000+0  36587-4 0  9996
2 43689  98.6631 252.3412 0002217  97.6893 262.4537 14.21518503398388
ES'HAIL 2               
1 43700U 18090A   26193.21166212  .00000000  00000+0  00000+0 0  9992
2 43700   0.0282  45.8671 0002171 114.4474 231.7884  1.00269523 27926
MOHAMMED VI-B           
1 43717U 18095A   26193.30918184  .00000603  00000+0  92646-4 0  9999
2 43717  97.9553 265.2869 0001752  95.8873 264.2537 14.77080545411898
HYSIS                   
1 43719U 18096A   26193.31726398  .00000094  00000+0  19828-4 0  9992
2 43719  97.9834 259.8668 0001857  84.9993 275.1430 14.78665637411138
COSMOS 2530 (RODNIK-S *)
1 43751U 18097A   26193.25040138  .00000003  00000+0 -46460-4 0  9996
2 43751  82.5125 206.7255 0019107 345.5380  14.5151 12.42881597345408
COSMOS 2531 (RODNIK-S *)
1 43752U 18097B   26193.27205757  .00000000  00000+0 -67940-4 0  9992
2 43752  82.5171 207.7791 0016729   5.4204 354.7054 12.42912871345423
